satname,norad_id,inclination_deg,eccentricity,mean_motion_rev_per_day,perigee_km,apogee_km,l1,l2
STARLINK-1234,45190,53.0337,0.0001778,15.79034601,331.9814371431894,334.36797958668376,1 45190U 20012N   26170.91668980  .01203890  00000+0  58816-2 0  9999,2 45190  53.0337 180.0924 0001778  84.7822 291.5589 15.79034601  5987
STARLINK-1269,45197,53.1563,0.0001413,15.36042176,456.8607743600205,458.79261770051835,1 45197U 20012V   26170.70157336  .00035689  00000+0  10083-2 0  9993,2 45197  53.1563 284.2936 0001413 335.2146  24.8789 15.36042176350559
STARLINK-1154,45198,53.04,0.0003524,15.64676481,371.78984291052075,376.5488684299971,1 45198U 20012W   26170.47863119  .00035906  00000+0  36740-3 0  9992,2 45198  53.0400 237.6633 0003524  18.0082 342.1057 15.64676481351137
STARLINK-1199,45201,53.1563,0.0003706,15.36053403,455.25999085845524,460.3267824610484,1 45201U 20012Z   26170.54247683  .00037940  00000+0  10704-2 0  9998,2 45201  53.1563 269.3066 0003706 326.6109  33.4660 15.36053403350776
STARLINK-1209,45206,53.0361,0.0006304,15.67007848,363.2179537449847,371.72281553553876,1 45206U 20012AE  26170.55332776  .00098428  00000+0  90116-3 0  9996,2 45206  53.0361 197.3258 0006304 291.1494  68.8847 15.67007848350819
STARLINK-1231,45212,53.0401,0.0002446,15.28624234,478.2465821716987,481.6015456441628,1 45212U 20012AL  26170.51664288  .00029569  00000+0  10562-2 0  9991,2 45212  53.0401 265.1703 0002446  63.8763 296.2487 15.28624234350768
STARLINK-1271,45217,53.1568,0.0003509,15.3619681,454.9693696373224,459.76652701005514,1 45217U 20012AR  26170.53856126  .00039028  00000+0  10956-2 0  9990,2 45217  53.1568 269.4304 0003509 328.5567  31.5226 15.36196810350771
STARLINK-1191,45222,53.1521,0.0002883,15.40291933,443.2798385151609,447.214201741167,1 45222U 20012AW  26170.48788455  .00047972  00000+0  11754-2 0  9993,2 45222  53.1521 242.3312 0002883 301.2164  58.8558 15.40291933351150
STARLINK-1212,45223,53.0374,0.0001262,15.702383,357.3652542509535,359.0655095921502,1 45223U 20012AX  26170.91668980  .00449954  00000+0  34444-2 0  9999,2 45223  53.0374 211.0120 0001262  84.9252 131.5489 15.70238300  5913
STARLINK-1215,45225,53.1549,0.0004432,15.36371506,453.82050976811934,459.87904204628467,1 45225U 20012AZ  26170.47175433  .00039835  00000+0  11115-2 0  9991,2 45225  53.1549 243.9986 0004432 333.4799  26.5977 15.36371506351089
STARLINK-1221,45227,53.0634,0.0003225,15.45155749,428.7245519381613,433.1163940082297,1 45227U 20012BB  26170.10941825  .00011718  00000+0  25178-3 0  9994,2 45227  53.0634 147.7813 0003225   3.2425 356.8602 15.45155749352378
STARLINK-1222,45228,53.0497,0.0002192,15.56125897,397.3962367147042,400.3672817387496,1 45228U 20012BC  26170.58038551  .00032088  00000+0  45602-3 0  9997,2 45228  53.0497 211.9694 0002192  69.0031 291.1214 15.56125897351453
STARLINK-1226,45229,53.1544,0.000462,15.45439314,426.9421409571951,433.2329404327975,1 45229U 20012BD  26170.36829422  .00053404  00000+0  10992-2 0  9997,2 45229  53.1544 239.7885 0004620 333.6043  26.4729 15.45439314351077
STARLINK-1227,45230,53.152,0.0004586,15.45541306,426.66590141849883,432.910130243019,1 45230U 20012BE  26170.50671997  .00046977  00000+0  96539-3 0  9996,2 45230  53.1520 239.2265 0004586 325.0405  35.0301 15.45541306351211
STARLINK-1246,45235,53.1566,0.0002458,15.36068415,456.06858747057413,459.42910895355544,1 45235U 20012BK  26170.57781935  .00040645  00000+0  11451-2 0  9997,2 45235  53.1566 284.4976 0002458 291.4363  68.6378 15.36068415350593
STARLINK-1270,45237,53.0382,0.0001633,15.67055802,366.23123232984017,368.4343027559207,1 45237U 20012BM  26170.91668980  .01172084  00000+0  97244-2 0  9999,2 45237  53.0382 212.7654 0001633  93.4590 221.0983 15.67055802  5890
STARLINK-1279,45360,53.0353,0.0001971,15.80752421,326.9898183974119,329.6335004589582,1 45360U 20019A   26170.91668980  .00076383  00000+0  38919-3 0  9992,2 45360  53.0353 314.6908 0001971  49.5962 182.3754 15.80752421  5980
STARLINK-1301,45361,53.0353,0.000209,15.82679336,321.4666353589664,324.26765509166944,1 45361U 20019B   26170.81865538  .00103398  00000+0  47916-3 0  9994,2 45361  53.0353 317.4020 0002090 329.1977  30.8922 15.82679336346676
STARLINK-1262,45366,53.154,0.0004192,15.35056983,457.8843827965884,463.6181067009866,1 45366U 20019G   26169.97044633  .00039033  00000+0  11362-2 0  9998,2 45366  53.1540  53.8731 0004192 123.2765 236.8639 15.35056983345276
STARLINK-1273,45367,53.0443,0.0003795,15.58500904,389.42572334542456,394.5642535246461,1 45367U 20019H   26170.30319301  .00085042  00000+0  10883-2 0  9993,2 45367  53.0443  25.9684 0003795 102.1566 257.9871 15.58500904345676
STARLINK-1277,45369,53.0416,0.00014,15.67755665,364.3810332587818,366.2692026518089,1 45369U 20019K   26170.91668980  .00446378  00000+0  37853-2 0  9991,2 45369  53.0416  16.3707 0001400  95.2324 330.2077 15.67755665  5901
STARLINK-1281,45370,53.1559,0.0004431,15.3588786,455.2553586753811,461.31379547698725,1 45370U 20019L   26170.36615003  .00039752  00000+0  11266-2 0  9994,2 45370  53.1559  51.5806 0004431 108.7983 251.3501 15.35887860345349
STARLINK-1300,45374,53.1576,0.0004023,15.36466944,453.81713380682504,459.3163364321017,1 45374U 20019Q   26170.37422451  .00023129  00000+0  64934-3 0  9994,2 45374  53.1576  51.4044 0004023 116.9794 243.1620 15.36466944345341
STARLINK-1302,45375,53.0454,0.0004142,15.68413134,360.648080059289,366.2328028117754,1 45375U 20019R   26169.85940188  .00041880  00000+0  36771-3 0  9990,2 45375  53.0454  17.4174 0004142 102.3192 257.8288 15.68413134345750
STARLINK-1304,45376,53.0415,0.0003195,15.6459205,372.2548331095077,376.56971209470066,1 45376U 20019S   26170.72109662  .00040923  00000+0  41913-3 0  9994,2 45376  53.0415  14.8432 0003195 128.2106 231.9196 15.64592050345869
STARLINK-1305,45377,53.0393,0.0002395,15.72965646,348.8149193966701,352.03790127021875,1 45377U 20019T   26170.67355155  .00050449  00000+0  36525-3 0  9996,2 45377  53.0393 352.8644 0002395 275.5779  84.4966 15.72965646346173
STARLINK-1319,45379,53.0373,0.0001319,15.796061,330.67084091179004,332.4408578854609,1 45379U 20019V   26170.78534440  .00095242  00000+0  50934-3 0  9996,2 45379  53.0373 343.4663 0001319 107.7901 252.3263 15.79606100346314
STARLINK-1266,45383,53.0463,6.51e-05,15.66944813,367.2121406449569,368.09044228050516,1 45383U 20019Z   26170.71752661  .00042104  00000+0  39244-3 0  9991,2 45383  53.0463 359.5896 0000651 258.3631 101.7311 15.66944813346072
STARLINK-1267,45384,53.0443,0.0004375,15.66836506,365.0107362656736,370.91357302598954,1 45384U 20019AA  26170.68917600  .00178807  00000+0  16290-2 0  9999,2 45384  53.0443 350.9952 0004375 144.4254 215.7054 15.66836506346194
STARLINK-1272,45386,53.0393,0.0004789,15.71214017,352.2015596020492,358.65096649539737,1 45386U 20019AC  26170.86628082  .00057563  00000+0  44751-3 0  9993,2 45386  53.0393 328.4884 0004789 128.5329 231.6118 15.71214017346527
STARLINK-1274,45387,53.0211,0.0006412,15.64089737,371.52727054093066,380.1885936418448,1 45387U 20019AD  26170.69552503  .00086432  00000+0  89105-3 0  9998,2 45387  53.0211 329.1828 0006412 199.2905 160.7866 15.64089737346492
STARLINK-1280,45388,53.0351,0.000172,15.84976412,315.23969673388547,317.54261441940434,1 45388U 20019AE  26170.91668980  .00187302  00000+0  76860-3 0  9993,2 45388  53.0351 334.6418 0001720 335.0178 252.5287 15.84976412  5994
STARLINK-1283,45389,53.0402,0.0001318,15.73040363,349.32654778970664,351.10014094048074,1 45389U 20019AF  26170.67897368  .00057262  00000+0  41236-3 0  9991,2 45389  53.0402 328.3429 0001318 225.9425 134.1484 15.73040363346514
STARLINK-1284,45390,53.0421,0.0003237,15.71308413,352.97701501550546,357.33614928058887,1 45390U 20019AG  26170.70944660  .00054646  00000+0  42367-3 0  9994,2 45390  53.0421 352.2223 0003237  62.6999 297.4348 15.71308413346174
STARLINK-1297,45395,53.0418,0.0001707,15.71018718,354.8347859959822,357.13381500797277,1 45395U 20019AM  26170.80022977  .00263072  00000+0  19962-2 0  9997,2 45395  53.0418 350.9546 0001707 114.4549 245.6646 15.71018718345389
STARLINK-1307,45397,53.0528,0.0001204,15.57483324,394.12802734236993,395.758985128271,1 45397U 20019AP  26170.68874977  .00030561  00000+0  41342-3 0  9993,2 45397  53.0528 358.4511 0001204 159.5628 200.5431 15.57483324345912
STARLINK-1255,45399,53.0348,0.0002931,15.66887592,365.83828425831325,369.79276162726273,1 45399U 20019AR  26170.84959093  .00045273  00000+0  42234-3 0  9993,2 45399  53.0348 324.7006 0002931 152.3152 207.8020 15.66887592346381
STARLINK-1260,45404,53.1553,0.0004322,15.390491,445.9692772656663,451.8705852770581,1 45404U 20019AW  26170.71082295  .00045573  00000+0  11638-2 0  9993,2 45404  53.1553  12.4166 0004322 132.0272 228.1101 15.39049100345637
STARLINK-1263,45405,53.1575,0.0002998,15.36012845,455.8642720418966,459.96316805363676,1 45405U 20019AX  26170.70404367  .00041399  00000+0  11680-2 0  9990,2 45405  53.1575  13.9587 0002998 154.9011 205.2139 15.36012845345614
STARLINK-1265,45406,53.1568,0.0003168,15.39371976,445.8027600709138,450.1277784687227,1 45406U 20019AY  26170.70073458  .00046051  00000+0  11636-2 0  9995,2 45406  53.1568  12.4271 0003168 121.6920 238.4393 15.39371976345639
STARLINK-1278,45408,53.0393,0.0002105,15.72382483,350.6732481514782,353.5066737020279,1 45408U 20019BA  26170.81944209 -.00060353  00000+0 -44382-3 0  9998,2 45408  53.0393 349.7063 0002105 103.0559 257.0693 15.72382483345949
STARLINK-1296,45412,53.1556,0.0003751,15.39556569,444.85935847289966,449.97989105279703,1 45412U 20019BE  26170.73890564  .00044220  00000+0  11112-2 0  9995,2 45412  53.1556  11.9205 0003751 115.4810 244.6583 15.39556569345645
STARLINK-1309,45414,53.0608,0.0001883,15.70431636,356.39414417615717,358.9308462660583,1 45414U 20019BG  26170.84762275  .00526039  00000+0  39572-2 0  9999,2 45414  53.0608 343.6321 0001883 105.9128 254.2097 15.70431636346019
